{
  "type": "FeatureCollection",
  "features": [
    {
      "type": "Feature",
      "properties": {
        "norad_id": 37326,
        "name": "COSMOS 2251 DEB",
        "group": "cosmos-2251-debris",
        "lat": 62.68684912126885,
        "lon": 115.75278663786274,
        "alt_km": 644.085836322688,
        "timestamp": "2025-12-15T11:38:37.549756+00:00",
        "meta_object_name": "COSMOS 2251 DEB",
        "meta_object_id": "1993-036BKS",
        "meta_epoch": "2025-12-12T07:34:09.729696",
        "meta_mean_motion": 14.61572404,
        "meta_eccentricity": 0.00547779,
        "meta_inclination": 74.0262,
        "meta_ra_of_asc_node": 335.5049,
        "meta_arg_of_pericenter": 104.6745,
        "meta_mean_anomaly": 256.0503,
        "meta_ephemeris_type": 0,
        "meta_classification_type": "U",
        "meta_norad_cat_id": 37326,
        "meta_element_set_no": 999,
        "meta_rev_at_epoch": 85477,
        "meta_bstar": 0.00081564532,
        "meta_mean_motion_dot": 4.11e-05,
        "meta_mean_motion_ddot": 0,
        "tle_line1": "1 37326U 93036BKS 25346.31539039  .00004110  00000+0  81565-3 0  9998",
        "tle_line2": "2 37326  74.0262 335.5049 0054777 104.6745 256.0503 14.61572404854776"
      },
      "geometry": {
        "type": "Point",
        "coordinates": [
          115.75278663786274,
          62.68684912126885
        ]
      }
    },
    {
      "type": "Feature",
      "properties": {
        "norad_id": 37330,
        "name": "COSMOS 2251 DEB",
        "group": "cosmos-2251-debris",
        "lat": 73.91419894437954,
        "lon": 13.502081595575648,
        "alt_km": 660.8720091655714,
        "timestamp": "2025-12-15T11:38:37.549766+00:00",
        "meta_object_name": "COSMOS 2251 DEB",
        "meta_object_id": "1993-036BKW",
        "meta_epoch": "2025-12-13T13:10:48.219744",
        "meta_mean_motion": 14.59543313,
        "meta_eccentricity": 0.00569835,
        "meta_inclination": 74.0177,
        "meta_ra_of_asc_node": 293.5413,
        "meta_arg_of_pericenter": 141.8805,
        "meta_mean_anomaly": 218.6413,
        "meta_ephemeris_type": 0,
        "meta_classification_type": "U",
        "meta_norad_cat_id": 37330,
        "meta_element_set_no": 999,
        "meta_rev_at_epoch": 86380,
        "meta_bstar": 0.00043870058,
        "meta_mean_motion_dot": 2.102e-05,
        "meta_mean_motion_ddot": 0,
        "tle_line1": "1 37330U 93036BKW 25347.54916921  .00002102  00000+0  43870-3 0  9994",
        "tle_line2": "2 37330  74.0177 293.5413 0056983 141.8805 218.6413 14.59543313863807"
      },
      "geometry": {
        "type": "Point",
        "coordinates": [
          13.502081595575648,
          73.91419894437954
        ]
      }
    },
    {
      "type": "Feature",
      "properties": {
        "norad_id": 37331,
        "name": "COSMOS 2251 DEB",
        "group": "cosmos-2251-debris",
        "lat": -30.20489186157187,
        "lon": 53.281460972980035,
        "alt_km": 792.475899649563,
        "timestamp": "2025-12-15T11:38:37.549776+00:00",
        "meta_object_name": "COSMOS 2251 DEB",
        "meta_object_id": "1993-036BKX",
        "meta_epoch": "2025-12-14T14:02:24.120096",
        "meta_mean_motion": 14.3502836,
        "meta_eccentricity": 0.00552546,
        "meta_inclination": 74.0749,
        "meta_ra_of_asc_node": 64.4942,
        "meta_arg_of_pericenter": 78.2715,
        "meta_mean_anomaly": 282.463,
        "meta_ephemeris_type": 0,
        "meta_classification_type": "U",
        "meta_norad_cat_id": 37331,
        "meta_element_set_no": 999,
        "meta_rev_at_epoch": 84786,
        "meta_bstar": 0.00050230933,
        "meta_mean_motion_dot": 1.431e-05,
        "meta_mean_motion_ddot": 0,
        "tle_line1": "1 37331U 93036BKX 25348.58500139  .00001431  00000+0  50231-3 0  9993",
        "tle_line2": "2 37331  74.0749  64.4942 0055254  78.2715 282.4630 14.35028360847860"
      },
      "geometry": {
        "type": "Point",
        "coordinates": [
          53.281460972980035,
          -30.20489186157187
        ]
      }
    },
    {
      "type": "Feature",
      "properties": {
        "norad_id": 37336,
        "name": "COSMOS 2251 DEB",
        "group": "cosmos-2251-debris",
        "lat": -66.89346114409473,
        "lon": -75.91570068679117,
        "alt_km": 798.5244931144307,
        "timestamp": "2025-12-15T11:38:37.549786+00:00",
        "meta_object_name": "COSMOS 2251 DEB",
        "meta_object_id": "1993-036BLC",
        "meta_epoch": "2025-12-12T16:57:13.021344",
        "meta_mean_motion": 14.32758619,
        "meta_eccentricity": 0.002885,
        "meta_inclination": 74.0411,
        "meta_ra_of_asc_node": 331.2736,
        "meta_arg_of_pericenter": 49.0239,
        "meta_mean_anomaly": 311.3401,
        "meta_ephemeris_type": 0,
        "meta_classification_type": "U",
        "meta_norad_cat_id": 37336,
        "meta_element_set_no": 999,
        "meta_rev_at_epoch": 65119,
        "meta_bstar": 0.0001234592,
        "meta_mean_motion_dot": 3.12e-06,
        "meta_mean_motion_ddot": 0,
        "tle_line1": "1 37336U 93036BLC 25346.70640071  .00000312  00000+0  12346-3 0  9992",
        "tle_line2": "2 37336  74.0411 331.2736 0028850  49.0239 311.3401 14.32758619651197"
      },
      "geometry": {
        "type": "Point",
        "coordinates": [
          -75.91570068679117,
          -66.89346114409473
        ]
      }
    },
    {
      "type": "Feature",
      "properties": {
        "norad_id": 37340,
        "name": "COSMOS 2251 DEB",
        "group": "cosmos-2251-debris",
        "lat": -8.350781333607854,
        "lon": 94.51420078266563,
        "alt_km": 785.0458466114051,
        "timestamp": "2025-12-15T11:38:37.549796+00:00",
        "meta_object_name": "COSMOS 2251 DEB",
        "meta_object_id": "1993-036BLG",
        "meta_epoch": "2025-12-14T11:22:35.426496",
        "meta_mean_motion": 14.36925814,
        "meta_eccentricity": 0.00178426,
        "meta_inclination": 74.0254,
        "meta_ra_of_asc_node": 273.9638,
        "meta_arg_of_pericenter": 8.4859,
        "meta_mean_anomaly": 351.6592,
        "meta_ephemeris_type": 0,
        "meta_classification_type": "U",
        "meta_norad_cat_id": 37340,
        "meta_element_set_no": 999,
        "meta_rev_at_epoch": 84092,
        "meta_bstar": 0.00025986643,
        "meta_mean_motion_dot": 7.44e-06,
        "meta_mean_motion_ddot": 0,
        "tle_line1": "1 37340U 93036BLG 25348.47402114  .00000744  00000+0  25987-3 0  9991",
        "tle_line2": "2 37340  74.0254 273.9638 0017842   8.4859 351.6592 14.36925814840922"
      },
      "geometry": {
        "type": "Point",
        "coordinates": [
          94.51420078266563,
          -8.350781333607854
        ]
      }
    },
    {
      "type": "Feature",
      "properties": {
        "norad_id": 37483,
        "name": "COSMOS 2251 DEB",
        "group": "cosmos-2251-debris",
        "lat": 6.789521794782393,
        "lon": 140.174581620686,
        "alt_km": 687.2660744691111,
        "timestamp": "2025-12-15T11:38:37.549806+00:00",
        "meta_object_name": "COSMOS 2251 DEB",
        "meta_object_id": "1993-036BLL",
        "meta_epoch": "2025-12-14T17:18:58.819968",
        "meta_mean_motion": 14.43559651,
        "meta_eccentricity": 0.00932179,
        "meta_inclination": 73.9731,
        "meta_ra_of_asc_node": 139.6377,
        "meta_arg_of_pericenter": 345.6463,
        "meta_mean_anomaly": 14.2047,
        "meta_ephemeris_type": 0,
        "meta_classification_type": "U",
        "meta_norad_cat_id": 37483,
        "meta_element_set_no": 999,
        "meta_rev_at_epoch": 65308,
        "meta_bstar": 0.00025126319,
        "meta_mean_motion_dot": 8.68e-06,
        "meta_mean_motion_ddot": 0,
        "tle_line1": "1 37483U 93036BLL 25348.72151412  .00000868  00000+0  25126-3 0  9991",
        "tle_line2": "2 37483  73.9731 139.6377 0093217 345.6463  14.2047 14.43559651653089"
      },
      "geometry": {
        "type": "Point",
        "coordinates": [
          140.174581620686,
          6.789521794782393
        ]
      }
    },
    {
      "type": "Feature",
      "properties": {
        "norad_id": 37484,
        "name": "COSMOS 2251 DEB",
        "group": "cosmos-2251-debris",
        "lat": -54.75730005208984,
        "lon": 47.5449224181616,
        "alt_km": 730.9485133465078,
        "timestamp": "2025-12-15T11:38:37.549815+00:00",
        "meta_object_name": "COSMOS 2251 DEB",
        "meta_object_id": "1993-036BLM",
        "meta_epoch": "2025-12-13T09:24:26.834400",
        "meta_mean_motion": 14.41788664,
        "meta_eccentricity": 0.00396324,
        "meta_inclination": 73.8238,
        "meta_ra_of_asc_node": 207.2158,
        "meta_arg_of_pericenter": 242.044,
        "meta_mean_anomaly": 295.8925,
        "meta_ephemeris_type": 0,
        "meta_classification_type": "U",
        "meta_norad_cat_id": 37484,
        "meta_element_set_no": 999,
        "meta_rev_at_epoch": 65388,
        "meta_bstar": 0.0010361037,
        "meta_mean_motion_dot": 3.39e-05,
        "meta_mean_motion_ddot": 0,
        "tle_line1": "1 37484U 93036BLM 25347.39197725  .00003390  00000+0  10361-2 0  9998",
        "tle_line2": "2 37484  73.8238 207.2158 0039632 242.0440 295.8925 14.41788664653882"
      },
      "geometry": {
        "type": "Point",
        "coordinates": [
          47.5449224181616,
          -54.75730005208984
        ]
      }
    }
  ]
}